CCSDS_OMM_VERS = 2.0
CREATION_DATE  = 
ORIGINATOR     = 

OBJECT_NAME    = COSMOS 1933
OBJECT_ID      = 1988-020A
CENTER_NAME    = EARTH
REF_FRAME      = TEME
TIME_SYSTEM    = UTC
MEAN_ELEMENT_THEORY = SGP/SGP4

EPOCH          = 2026-02-01T03:14:44.089728
MEAN_MOTION    = 15.17657207
ECCENTRICITY   = .00039408
INCLINATION    = 82.5136
RA_OF_ASC_NODE = 287.0740
ARG_OF_PERICENTER = 353.6736
MEAN_ANOMALY   = 6.4448

EPHEMERIS_TYPE = 0
CLASSIFICATION_TYPE = U
NORAD_CAT_ID   = 18958
ELEMENT_SET_NO = 999
REV_AT_EPOCH   = 4468
BSTAR          = .16710211E-3
MEAN_MOTION_DOT = .3394E-4
MEAN_MOTION_DDOT = 0

CCSDS_OMM_VERS = 2.0
CREATION_DATE  = 
ORIGINATOR     = 

OBJECT_NAME    = SL-3 R/B
OBJECT_ID      = 1988-032B
CENTER_NAME    = EARTH
REF_FRAME      = TEME
TIME_SYSTEM    = UTC
MEAN_ELEMENT_THEORY = SGP/SGP4

EPOCH          = 2026-02-01T04:30:56.421792
MEAN_MOTION    = 15.19413906
ECCENTRICITY   = .00264566
INCLINATION    = 97.5131
RA_OF_ASC_NODE = 15.5975
ARG_OF_PERICENTER = 5.7427
MEAN_ANOMALY   = 354.4105

EPHEMERIS_TYPE = 0
CLASSIFICATION_TYPE = U
NORAD_CAT_ID   = 19046
ELEMENT_SET_NO = 999
REV_AT_EPOCH   = 4656
BSTAR          = .2511856E-3
MEAN_MOTION_DOT = .5297E-4
MEAN_MOTION_DDOT = 0

CCSDS_OMM_VERS = 2.0
CREATION_DATE  = 
ORIGINATOR     = 

OBJECT_NAME    = SL-16 R/B
OBJECT_ID      = 1988-039B
CENTER_NAME    = EARTH
REF_FRAME      = TEME
TIME_SYSTEM    = UTC
MEAN_ELEMENT_THEORY = SGP/SGP4

EPOCH          = 2026-02-01T01:23:15.117504
MEAN_MOTION    = 14.19610386
ECCENTRICITY   = .0020566
INCLINATION    = 71.0152
RA_OF_ASC_NODE = 146.0069
ARG_OF_PERICENTER = 30.9719
MEAN_ANOMALY   = 329.2614

EPHEMERIS_TYPE = 0
CLASSIFICATION_TYPE = U
NORAD_CAT_ID   = 19120
ELEMENT_SET_NO = 999
REV_AT_EPOCH   = 95318
BSTAR          = .10204507E-3
MEAN_MOTION_DOT = .168E-5
MEAN_MOTION_DDOT = 0

CCSDS_OMM_VERS = 2.0
CREATION_DATE  = 
ORIGINATOR     = 

OBJECT_NAME    = COSMOS 1953
OBJECT_ID      = 1988-050A
CENTER_NAME    = EARTH
REF_FRAME      = TEME
TIME_SYSTEM    = UTC
MEAN_ELEMENT_THEORY = SGP/SGP4

EPOCH          = 2026-02-01T03:40:05.880576
MEAN_MOTION    = 15.27752735
ECCENTRICITY   = .0010371
INCLINATION    = 82.5075
RA_OF_ASC_NODE = 194.9662
ARG_OF_PERICENTER = 251.7630
MEAN_ANOMALY   = 108.2480

EPHEMERIS_TYPE = 0
CLASSIFICATION_TYPE = U
NORAD_CAT_ID   = 19210
ELEMENT_SET_NO = 999
REV_AT_EPOCH   = 3220
BSTAR          = .28842114E-3
MEAN_MOTION_DOT = .7861E-4
MEAN_MOTION_DDOT = 0

CCSDS_OMM_VERS = 2.0
CREATION_DATE  = 
ORIGINATOR     = 

OBJECT_NAME    = SL-8 R/B
OBJECT_ID      = 1988-053B
CENTER_NAME    = EARTH
REF_FRAME      = TEME
TIME_SYSTEM    = UTC
MEAN_ELEMENT_THEORY = SGP/SGP4

EPOCH          = 2026-01-31T21:19:27.153408
MEAN_MOTION    = 14.38892488
ECCENTRICITY   = .00200305
INCLINATION    = 74.0474
RA_OF_ASC_NODE = 180.2929
ARG_OF_PERICENTER = 6.8860
MEAN_ANOMALY   = 110.8703

EPHEMERIS_TYPE = 0
CLASSIFICATION_TYPE = U
NORAD_CAT_ID   = 19257
ELEMENT_SET_NO = 999
REV_AT_EPOCH   = 97130
BSTAR          = .90178804E-4
MEAN_MOTION_DOT = .252E-5
MEAN_MOTION_DDOT = 0

CCSDS_OMM_VERS = 2.0
CREATION_DATE  = 
ORIGINATOR     = 

OBJECT_NAME    = COSMOS 1975
OBJECT_ID      = 1988-093A
CENTER_NAME    = EARTH
REF_FRAME      = TEME
TIME_SYSTEM    = UTC
MEAN_ELEMENT_THEORY = SGP/SGP4

EPOCH          = 2026-01-31T18:48:44.125920
MEAN_MOTION    = 15.27392867
ECCENTRICITY   = .00105375
INCLINATION    = 82.5222
RA_OF_ASC_NODE = 154.7010
ARG_OF_PERICENTER = 303.5251
MEAN_ANOMALY   = 56.4981

EPHEMERIS_TYPE = 0
CLASSIFICATION_TYPE = U
NORAD_CAT_ID   = 19573
ELEMENT_SET_NO = 999
REV_AT_EPOCH   = 1377
BSTAR          = .33753999E-3
MEAN_MOTION_DOT = .9096E-4
MEAN_MOTION_DDOT = 0

CCSDS_OMM_VERS = 2.0
CREATION_DATE  = 
ORIGINATOR     = 

OBJECT_NAME    = SL-14 R/B
OBJECT_ID      = 1988-093B
CENTER_NAME    = EARTH
REF_FRAME      = TEME
TIME_SYSTEM    = UTC
MEAN_ELEMENT_THEORY = SGP/SGP4

EPOCH          = 2026-02-01T01:58:39.274464
MEAN_MOTION    = 14.85615081
ECCENTRICITY   = .00213481
INCLINATION    = 82.5286
RA_OF_ASC_NODE = 76.4186
ARG_OF_PERICENTER = 155.4129
MEAN_ANOMALY   = 227.3246

EPHEMERIS_TYPE = 0
CLASSIFICATION_TYPE = U
NORAD_CAT_ID   = 19574
ELEMENT_SET_NO = 999
REV_AT_EPOCH   = 99560
BSTAR          = .52556641E-4
MEAN_MOTION_DOT = .481E-5
MEAN_MOTION_DDOT = 0

CCSDS_OMM_VERS = 2.0
CREATION_DATE  = 
ORIGINATOR     = 

OBJECT_NAME    = SL-16 R/B
OBJECT_ID      = 1988-102B
CENTER_NAME    = EARTH
REF_FRAME      = TEME
TIME_SYSTEM    = UTC
MEAN_ELEMENT_THEORY = SGP/SGP4

EPOCH          = 2026-02-01T05:53:16.649376
MEAN_MOTION    = 14.16146334
ECCENTRICITY   = .00121047
INCLINATION    = 70.9971
RA_OF_ASC_NODE = 228.1761
ARG_OF_PERICENTER = 62.0926
MEAN_ANOMALY   = 298.1422

EPHEMERIS_TYPE = 0
CLASSIFICATION_TYPE = U
NORAD_CAT_ID   = 19650
ELEMENT_SET_NO = 999
REV_AT_EPOCH   = 92173
BSTAR          = -.77149235E-4
MEAN_MOTION_DOT = -.201E-5
MEAN_MOTION_DDOT = 0

CCSDS_OMM_VERS = 2.0
CREATION_DATE  = 
ORIGINATOR     = 

OBJECT_NAME    = INTERCOSMOS 24
OBJECT_ID      = 1989-080A
CENTER_NAME    = EARTH
REF_FRAME      = TEME
TIME_SYSTEM    = UTC
MEAN_ELEMENT_THEORY = SGP/SGP4

EPOCH          = 2026-01-31T18:56:30.714432
MEAN_MOTION    = 12.59507867
ECCENTRICITY   = .11884851
INCLINATION    = 82.6075
RA_OF_ASC_NODE = 128.4180
ARG_OF_PERICENTER = 18.4860
MEAN_ANOMALY   = 345.5829

EPHEMERIS_TYPE = 0
CLASSIFICATION_TYPE = U
NORAD_CAT_ID   = 20261
ELEMENT_SET_NO = 999
REV_AT_EPOCH   = 66215
BSTAR          = .14784817E-3
MEAN_MOTION_DOT = .52E-5
MEAN_MOTION_DDOT = 0

CCSDS_OMM_VERS = 2.0
CREATION_DATE  = 
ORIGINATOR     = 

OBJECT_NAME    = SL-14 R/B
OBJECT_ID      = 1989-080C
CENTER_NAME    = EARTH
REF_FRAME      = TEME
TIME_SYSTEM    = UTC
MEAN_ELEMENT_THEORY = SGP/SGP4

EPOCH          = 2026-02-01T03:33:23.690304
MEAN_MOTION    = 12.50451230
ECCENTRICITY   = .12294167
INCLINATION    = 82.5934
RA_OF_ASC_NODE = 196.6464
ARG_OF_PERICENTER = 268.3253
MEAN_ANOMALY   = 77.7001

EPHEMERIS_TYPE = 0
CLASSIFICATION_TYPE = U
NORAD_CAT_ID   = 20262
ELEMENT_SET_NO = 999
REV_AT_EPOCH   = 65558
BSTAR          = .99184932E-4
MEAN_MOTION_DOT = .327E-5
MEAN_MOTION_DDOT = 0

CCSDS_OMM_VERS = 2.0
CREATION_DATE  = 
ORIGINATOR     = 

OBJECT_NAME    = DELTA 1 R/B
OBJECT_ID      = 1989-089B
CENTER_NAME    = EARTH
REF_FRAME      = TEME
TIME_SYSTEM    = UTC
MEAN_ELEMENT_THEORY = SGP/SGP4

EPOCH          = 2026-01-31T23:51:26.657856
MEAN_MOTION    = 14.50629625
ECCENTRICITY   = .00677779
INCLINATION    = 97.0731
RA_OF_ASC_NODE = 245.2626
ARG_OF_PERICENTER = 238.0839
MEAN_ANOMALY   = 121.3755

EPHEMERIS_TYPE = 0
CLASSIFICATION_TYPE = U
NORAD_CAT_ID   = 20323
ELEMENT_SET_NO = 999
REV_AT_EPOCH   = 89041
BSTAR          = .11902458E-3
MEAN_MOTION_DOT = .445E-5
MEAN_MOTION_DDOT = 0

CCSDS_OMM_VERS = 2.0
CREATION_DATE  = 
ORIGINATOR     = 

OBJECT_NAME    = ARIANE 40 R/B
OBJECT_ID      = 1990-005H
CENTER_NAME    = EARTH
REF_FRAME      = TEME
TIME_SYSTEM    = UTC
MEAN_ELEMENT_THEORY = SGP/SGP4

EPOCH          = 2026-02-01T02:55:35.095008
MEAN_MOTION    = 14.39844409
ECCENTRICITY   = .00092293
INCLINATION    = 98.3160
RA_OF_ASC_NODE = 93.8583
ARG_OF_PERICENTER = 319.6844
MEAN_ANOMALY   = 40.3659

EPHEMERIS_TYPE = 0
CLASSIFICATION_TYPE = U
NORAD_CAT_ID   = 20443
ELEMENT_SET_NO = 999
REV_AT_EPOCH   = 88754
BSTAR          = .11196283E-3
MEAN_MOTION_DOT = .309E-5
MEAN_MOTION_DDOT = 0

