COSMOS 1933             
1 18958U 88020A   26032.13523252  .00003394  00000+0  16710-3 0  9991
2 18958  82.5136 287.0740 0003940 353.6736   6.4448 15.17657207 44684
SL-3 R/B                
1 19046U 88032B   26032.18815303  .00005297  00000+0  25119-3 0  9996
2 19046  97.5131  15.5975 0026456   5.7427 354.4105 15.19413906 46560
SL-16 R/B               
1 19120U 88039B   26032.05781386  .00000168  00000+0  10205-3 0  9997
2 19120  71.0152 146.0069 0020566  30.9719 329.2614 14.19610386953187
COSMOS 1953             
1 19210U 88050A   26032.15284584  .00007861  00000+0  28842-3 0  9992
2 19210  82.5075 194.9662 0010371 251.7630 108.2480 15.27752735 32209
SL-8 R/B                
1 19257U 88053B   26031.88850872  .00000252  00000+0  90179-4 0  9994
2 19257  74.0474 180.2929 0020030   6.8860 110.8703 14.38892488971301
COSMOS 1975             
1 19573U 88093A   26031.78384405  .00009096  00000+0  33754-3 0  9992
2 19573  82.5222 154.7010 0010537 303.5251  56.4981 15.27392867 13772
SL-14 R/B               
1 19574U 88093B   26032.08239901  .00000481  00000+0  52557-4 0  9999
2 19574  82.5286  76.4186 0021348 155.4129 227.3246 14.85615081995600
SL-16 R/B               
1 19650U 88102B   26032.24533159 -.00000201  00000+0 -77149-4 0  9991
2 19650  70.9971 228.1761 0012104  62.0926 298.1422 14.16146334921739
INTERCOSMOS 24          
1 20261U 89080A   26031.78924438  .00000520  00000+0  14785-3 0  9997
2 20261  82.6075 128.4180 1188485  18.4860 345.5829 12.59507867662153
SL-14 R/B               
1 20262U 89080C   26032.14819086  .00000327  00000+0  99185-4 0  9994
2 20262  82.5934 196.6464 1229416 268.3253  77.7001 12.50451230655589
DELTA 1 R/B             
1 20323U 89089B   26031.99405854  .00000445  00000+0  11902-3 0  9998
2 20323  97.0731 245.2626 0067777 238.0839 121.3755 14.50629625890419
ARIANE 40 R/B           
1 20443U 90005H   26032.12193397  .00000309  00000+0  11196-3 0  9997
2 20443  98.3160  93.8583 0009229 319.6844  40.3659 14.39844409887540
